STARLINK-34746          
1 64847U 25152F   25224.41668981  .00099727  00000+0  18157-2 0  9999
2 64847  97.6031  77.7269 0001475  80.4415 204.3676 15.49132437  3824
STARLINK-34748          
1 64848U 25152G   25224.41668981  .00094286  00000+0  17180-2 0  9990
2 64848  97.6031  77.7275 0001330  81.2523 205.5102 15.49131274  3826
STARLINK-34756          
1 64849U 25152H   25223.91668981  .00438158  00000+0  51903-2 0  9996
2 64849  97.6011  77.2361 0000627  52.7821  54.0681 15.59776772  4366
STARLINK-34757          
1 64850U 25152J   25224.41668981 -.01854262  00000+0 -46825-1 0  9991
2 64850  97.6031  77.7275 0002104  94.7690 177.7867 15.42988832  3835
STARLINK-34722          
1 64851U 25152K   25224.41668981  .00097073  00000+0  17680-2 0  9996
2 64851  97.6032  77.7293 0002055  87.3797 203.2750 15.49132031  3822
STARLINK-34564          
1 64852U 25152L   25223.91668981  .00129666  00000+0  23533-2 0  9999
2 64852  97.6030  77.2024 0001453 102.7082 283.1777 15.49107639  4360
STARLINK-34676          
1 64853U 25152M   25224.41668981  .00095103  00000+0  17328-2 0  9999
2 64853  97.6034  77.7310 0001970  80.8751 213.6828 15.49128675  3829
STARLINK-34682          
1 64854U 25152N   25224.16668981 -.02007501  00000+0 -42012-1 0  9998
2 64854  97.6030  77.4661 0001452  72.8008 270.1634 15.48709447  3782
STARLINK-34631          
1 64855U 25152P   25224.41668981  .00108481  00000+0  19745-2 0  9990
2 64855  97.6034  77.7337 0001389  83.6740 214.8212 15.49106621  3831
STARLINK-34578          
1 64856U 25152Q   25223.91668981  .00128115  00000+0  23256-2 0  9993
2 64856  97.6035  77.2057 0001701  99.5545 294.1237 15.49107787  4365
STARLINK-34683          
1 64857U 25152R   25224.41668981 -.01846652  00000+0 -45060-1 0  9992
2 64857  97.6033  77.7330 0002169  92.2771 198.7271 15.43987963  3837
STARLINK-34654          
1 64858U 25152S   25224.25002315 -.00006482  00000+0 -11749-3 0  9995
2 64858  97.6034  77.5598 0002085  90.0810   5.2885 15.49180626  3807
STARLINK-34575          
1 64859U 25152T   25224.41668981  .00094127  00000+0  17153-2 0  9996
2 64859  97.6033  77.7362 0001522  84.7781 221.4702 15.49128579  3821
STARLINK-34570          
1 64860U 25152U   25224.41668981  .00086033  00000+0  15693-2 0  9992
2 64860  97.6034  77.7368 0001266  85.3678 222.8256 15.49133620  3829
STARLINK-34651          
1 64861U 25152V   25223.91668981  .00093542  00000+0  15093-2 0  9994
2 64861  97.6074  77.2175 0001322  78.1516 343.0357 15.52573722  4362
STARLINK-34684          
1 64862U 25152W   25224.41668981  .00094039  00000+0  17135-2 0  9992
2 64862  97.6034  77.7390 0001358  89.3479 222.7382 15.49132127  3821
STARLINK-34690          
1 64863U 25152X   25224.41668981  .00083791  00000+0  15288-2 0  9993
2 64863  97.6033  77.7394 0001561  84.8329 229.2032 15.49134925  3827
STARLINK-34628          
1 64864U 25152Y   25224.41668981  .00082122  00000+0  14986-2 0  9995
2 64864  97.6033  77.7404 0001487  88.1044 227.8773 15.49137076  3824
STARLINK-34544          
1 64865U 25152Z   25224.41668981 -.02018819  00000+0 -45655-1 0  9998
2 64865  97.6034  77.7386 0001703  95.0910 219.6628 15.46504210  3828
O3B MPOWER A            
1 64866U 25153A   25216.04933964  .00000045  00000+0 -10540-2 0  9991
2 64866   8.7040  72.7484 1866856 214.4291 131.9558  7.18924737   893
O3B MPOWER B            
1 64867U 25153B   25215.73691733  .00000047  00000+0 -44399-3 0  9994
2 64867   9.0893  73.3062 1896449 214.2066 132.0093  7.24232134   865
FALCON 9 R/B            
1 64868U 25153C   25223.59437253  .00000070  00000+0  90635-2 0  9991
2 64868   9.7251  61.8314 1940328 237.6991 102.0463  7.32307332  1440
LIDE                    
1 64869U 25154A   25224.12070049  .00003714  00000+0  37518-3 0  9999
2 64869  97.7127 289.7904 0006339 166.4919 193.6471 14.91628397  2894
TRACERS 1               
1 64870U 25154B   25224.18047597  .00001380  00000+0  14108-3 0  9996
2 64870  97.7129 289.8644 0005187 190.8615 169.2493 14.92153160  2899
2025-154C               
1 64871U 25154C   25224.11162018  .00002344  00000+0  23403-3 0  9995
2 64871  97.7098 289.7970 0006461 182.9175 177.2008 14.92445608  2886
2025-154D               
1 64872U 25154D   25223.57552749  .00005589  00000+0  55220-3 0  9995
2 64872  97.7106 289.2727 0004900 201.1515 158.9502 14.92313452  2796
TRACERS 2               
1 64873U 25154E   25223.77482640  .00001284  00000+0  13083-3 0  9999
2 64873  97.7133 289.4753 0005887 202.4015 157.6948 14.92411737  2832
PEXT (BARD)             
1 64874U 25154F   25224.12130751  .00003506  00000+0  17796-3 0  9997
2 64874  97.4391 289.7416 0001318 292.8487  67.2608 15.17560486  2929
REAL                    
1 64875U 25154G   25223.91208948  .00014425  00000+0  69931-3 0  9998
2 64875  97.4453 289.5747 0001981 116.0366 244.1072 15.18622309  2894
IONOSFERA-M 3           
1 64876U 25155A   25223.97289531  .00000099  00000+0  63804-4 0  9999
2 64876  98.5564 189.3921 0002364  53.6484 306.4912 14.22053515  2463
IONOSFERA-M 4           
1 64877U 25155B   25224.40017574  .00000076  00000+0  54273-4 0  9990
2 64877  98.5562 189.7957 0001731  63.6517 296.4838 14.21190838  2521
INNOSAT 16 (RS92S7)     
1 64878U 25155C   25223.87111756  .00003666  00000+0  16687-3 0  9992
2 64878  97.4120 188.8501 0011413 183.0443 177.0726 15.21270042 33585
GEOSCAN 6 (RS92S6)      
1 64879U 25155D   25223.86355543  .00009016  00000+0  39719-3 0  9992
2 64879  97.4135 188.8660 0009416 175.8563 184.2753 15.22009308 33586
GEOSCAN 1 (RS92S1)      
1 64880U 25155E   25223.86333630  .00009749  00000+0  42884-3 0  9997
2 64880  97.4139 188.8676 0009353 176.3394 183.7912 15.22037495 33586
239ALFEROV (RS61S)      
1 64881U 25155F   25223.86212627  .00011641  00000+0  50939-3 0  9994
2 64881  97.4152 188.8724 0009195 176.0270 184.1041 15.22169697 33588
2025-155G               
1 64882U 25155G   25223.86166342  .00008334  00000+0  36587-3 0  9995
2 64882  97.4154 188.8593 0008571 175.4227 184.7089 15.22160300 33587
2025-155H               
1 64883U 25155H   25223.86149444  .00008081  00000+0  35473-3 0  9992
2 64883  97.4152 188.8588 0008521 175.3680 184.7637 15.22175595 33588
2025-155J               
1 64884U 25155J   25223.79566098  .00007734  00000+0  33964-3 0  9990
2 64884  97.4148 188.7936 0008449 176.2077 183.9224 15.22174530 33579
2025-155K               
1 64885U 25155K   25223.85929538  .00013950  00000+0  60330-3 0  9994
2 64885  97.4114 188.8618 0010454 165.5117 194.6421 15.22516372 33589
2025-155L               
1 64886U 25155L   25223.85926535  .00017703  00000+0  76456-3 0  9995
2 64886  97.4114 188.8627 0010158 165.4642 194.6889 15.22512314 33583
2025-155M               
1 64887U 25155M   25223.85948198  .00014769  00000+0  63975-3 0  9996
2 64887  97.4130 188.8668 0009799 166.0483 194.1026 15.22454622 33581
2025-155N               
1 64888U 25155N   25223.85894238  .00016669  00000+0  71965-3 0  9991
2 64888  97.4122 188.8648 0010062 165.1484 195.0050 15.22538891 33585
2025-155P               
1 64889U 25155P   25223.86042783  .00005005  00000+0  22068-3 0  9995
2 64889  97.4152 188.8662 0008104 171.5961 188.5412 15.22220117 33588
GEOSCAN 2 (RS92S2)      
1 64890U 25155Q   25223.85866669  .00009435  00000+0  41030-3 0  9994
2 64890  97.4134 188.8695 0009043 163.0151 197.1390 15.22441684 33581
2025-155R               
1 64891U 25155R   25223.85752869  .00011880  00000+0  51388-3 0  9995
2 64891  97.4146 188.8678 0007565 179.8713 180.2526 15.22570562 33584
2025-155S               
1 64892U 25155S   25223.85745283  .00011711  00000+0  50652-3 0  9994
2 64892  97.4147 188.8687 0007601 180.9534 179.1689 15.22579402 33580
GEOSCAN 3 (RS92S3)      
1 64893U 25155T   25223.85650053  .00012379  00000+0  53376-3 0  9992
2 64893  97.4146 188.8695 0007375 182.4249 177.6953 15.22672137 33583
INNOSAT 3 (RS92S0)      
1 64894U 25155U   25223.85565250  .00014160  00000+0  60811-3 0  9999
2 64894  97.4146 188.8708 0007346 184.1563 175.9613 15.22775570 33584
2025-155V               
1 64895U 25155V   25223.79566529  .00007806  00000+0  34264-3 0  9995
2 64895  97.4156 188.7952 0008522 175.2641 184.8677 15.22186638 33569
MICROCARB               
1 64899U 25156A   25224.35401649  .00000597  00000+0  10337-3 0  9999
2 64899  98.0140 301.6138 0016726 174.2235 185.9168 14.71759204  2536
CO3D 3                  
1 64900U 25156B   25223.91186182  .00007451  00000+0  32339-3 0  9997
2 64900  97.4490 301.9685 0004341 137.9872 222.1698 15.22612926  2542
CO3D 4                  
1 64901U 25156C   25223.91231928  .00007018  00000+0  30488-3 0  9999
2 64901  97.4567 301.9785 0004495 135.4090 224.7508 15.22605561  2549
CO3D 2                  
1 64902U 25156D   25223.91957792  .00005931  00000+0  27227-3 0  9993
2 64902  97.4354 301.9444 0004059 135.3646 224.7916 15.20779243  2548
CO3D 1                  
1 64903U 25156E   25223.91972768  .00003313  00000+0  15375-3 0  9997
2 64903  97.4346 301.9546 0004078 137.6659 222.4892 15.20721361  2549
STARLINK-34647          
1 64904U 25157A   25224.41668981 -.01520192  00000+0 -16847-1 0  9999
2 64904  53.1594 250.7514 0001128  83.1241 138.4199 15.65255157  3894
STARLINK-34273          
1 64905U 25157B   25224.41668981 -.01520880  00000+0 -16856-1 0  9994
2 64905  53.1594 250.7479 0001057  88.8554 134.6048 15.65255143  3903
STARLINK-34713          
1 64906U 25157C   25224.41668981 -.01518796  00000+0 -16830-1 0  9990
2 64906  53.1593 250.7434 0001147  90.3581 135.0193 15.65254505  3842
STARLINK-34712          
1 64907U 25157D   25224.41668981 -.01521074  00000+0 -16858-1 0  9994
2 64907  53.1594 250.7395 0001123  86.9180 140.3767 15.65255135  3891
STARLINK-34702          
1 64908U 25157E   25224.16668981 -.01571682  00000+0 -16876-1 0  9997
2 64908  53.1594 251.9593 0000971 100.6162 158.6498 15.66137870  3854
